NORAD_CAT_ID,OBJECT_NAME,OBJECT_TYPE,EPOCH,MEAN_MOTION,ECCENTRICITY,INCLINATION,RA_OF_ASC_NODE,ARG_OF_PERICENTER,MEAN_ANOMALY,BSTAR,MEAN_MOTION_DOT,MEAN_MOTION_DDOT,TLE_LINE0,TLE_LINE1,TLE_LINE2,SEMIMAJOR_AXIS,PERIOD,APOGEE,PERIGEE,DECAYED
52551.0,STARLINK-3969,PAYLOAD,2023-02-28 10:59:03,15.08881465,0.0001466,53.2173,50.6958,80.4786,279.6371,0.0017026,0.00026944,0.0,0 STARLINK-3969,1 52551U 22051U   23059.45768110  .00026944  00000-0  17026-2 0  9992,2 52551  53.2173  50.6958 0001466  80.4786 279.6371 15.08881465 44597,6917.754,95.435,540.633,538.605,0.0
52551.0,STARLINK-3969,PAYLOAD,2023-03-01 06:03:43,15.08810904,7.88e-05,53.2163,47.128,73.4057,286.7022,0.0013181,0.00020735,0.0,0 STARLINK-3969,1 52551U 22051U   23060.25258530  .00020735  00000-0  13181-2 0  9992,2 52551  53.2163  47.1280 0000788  73.4057 286.7022 15.08810904 44787,6917.969,95.439,540.379,539.289,0.0
52551.0,STARLINK-3969,PAYLOAD,2023-03-01 21:57:35,15.08845018,6.88e-05,53.2171,44.1543,76.1975,283.9093,0.0017111,0.00027053,0.0,0 STARLINK-3969,1 52551U 22051U   23060.91499055  .00027053  00000-0  17111-2 0  9991,2 52551  53.2171  44.1543 0000688  76.1975 283.9093 15.08845018 44818,6917.865,95.437,540.206,539.254,0.0
52551.0,STARLINK-3969,PAYLOAD,2023-03-02 15:26:48,15.08875124,7.81e-05,53.2169,40.8828,92.1784,267.9297,0.0010719,0.00016829,0.0,0 STARLINK-3969,1 52551U 22051U   23061.64361806  .00016829  00000-0  10719-2 0  9990,2 52551  53.2169  40.8828 0000781  92.1784 267.9297 15.08875124 44925,6917.773,95.435,540.178,539.098,0.0
52551.0,STARLINK-3969,PAYLOAD,2023-03-03 07:20:38,15.08905052,8.84e-05,53.216,37.9097,91.8733,268.236,0.0022873,0.00036367,0.0,0 STARLINK-3969,1 52551U 22051U   23062.30600024  .00036367  00000-0  22873-2 0  9995,2 52551  53.2160  37.9097 0000884  91.8733 268.2360 15.08905052 45093,6917.682,95.433,540.158,538.935,0.0
52551.0,STARLINK-3969,PAYLOAD,2023-03-04 07:11:25,15.08879605,0.0001127,53.2167,33.4479,114.3777,245.7332,0.0023562,0.00037451,0.0,0 STARLINK-3969,1 52551U 22051U   23063.29959495  .00037451  00000-0  23562-2 0  9994,2 52551  53.2167  33.4479 0001127 114.3777 245.7332 15.08879605 45245,6917.759,95.435,540.404,538.845,0.0
52551.0,STARLINK-3969,PAYLOAD,2023-03-04 10:22:11,15.08876356,9.19e-05,53.2166,32.8534,113.6976,246.4113,0.0030738,0.00049021,0.0,0 STARLINK-3969,1 52551U 22051U   23063.43207198  .00049021  00000-0  30738-2 0  9995,2 52551  53.2166  32.8534 0000919 113.6976 246.4113 15.08876356 45199,6917.769,95.435,540.27,538.999,0.0
52551.0,STARLINK-3969,PAYLOAD,2023-03-05 02:16:04,15.08819683,0.0001145,53.2169,29.8796,72.9576,287.1541,0.0014396,0.00022685,0.0,0 STARLINK-3969,1 52551U 22051U   23064.09449271  .00022685  00000-0  14396-2 0  9997,2 52551  53.2169  29.8796 0001145  72.9576 287.1541 15.08819683 45369,6917.942,95.439,540.6,539.015,0.0
52551.0,STARLINK-3969,PAYLOAD,2023-03-05 10:12:59,15.08860257,0.0001201,53.2167,28.3933,68.3798,291.7322,0.0033005,0.00052661,0.0,0 STARLINK-3969,1 52551U 22051U   23064.42569249  .00052661  00000-0  33005-2 0  9997,2 52551  53.2167  28.3933 0001201  68.3798 291.7322 15.08860257 45419,6917.818,95.436,540.514,538.853,0.0
52551.0,STARLINK-3969,PAYLOAD,2023-03-06 03:42:14,15.08875979,0.0001243,53.2178,25.1225,94.7117,265.4017,0.0034969,0.00055861,0.0,0 STARLINK-3969,1 52551U 22051U   23065.15433261  .00055861  00000-0  34969-2 0  9997,2 52551  53.2178  25.1225 0001243  94.7117 265.4017 15.08875979 45522,6917.77,95.435,540.495,538.776,0.0
52551.0,STARLINK-3969,PAYLOAD,2023-03-06 06:53:00,15.08898887,0.0001281,53.2179,24.5273,95.6716,264.4423,0.003883,0.00062155,0.0,0 STARLINK-3969,1 52551U 22051U   23065.28680770  .00062155  00000-0  38830-2 0  9995,2 52551  53.2179  24.5273 0001281  95.6716 264.4423 15.08898887 45541,6917.7,95.434,540.452,538.679,0.0
52551.0,STARLINK-3969,PAYLOAD,2023-03-07 03:33:01,15.08847874,5.41e-05,53.2183,20.6623,39.7154,320.3878,0.0024808,0.00039423,0.0,0 STARLINK-3969,1 52551U 22051U   23066.14793902  .00039423  00000-0  24808-2 0  9995,2 52551  53.2183  20.6623 0000541  39.7154 320.3878 15.08847874 45675,6917.856,95.437,540.096,539.347,0.0
52551.0,STARLINK-3969,PAYLOAD,2023-03-07 21:02:16,15.08845926,0.0001277,53.2176,17.3907,39.5484,320.5602,0.0033027,0.00052676,0.0,0 STARLINK-3969,1 52551U 22051U   23066.87658499  .00052676  00000-0  33027-2 0  9994,2 52551  53.2176  17.3907 0001277  39.5484 320.5602 15.08845926 45781,6917.862,95.437,540.611,538.844,0.0
52551.0,STARLINK-3969,PAYLOAD,2023-03-08 20:53:03,15.08871909,6.43e-05,53.2171,12.9274,75.2651,284.8412,0.0026955,0.0004291,0.0,0 STARLINK-3969,1 52551U 22051U   23067.87018097  .00042910  00000-0  26955-2 0  9991,2 52551  53.2171  12.9274 0000643  75.2651 284.8412 15.08871909 45863,6917.783,95.436,540.093,539.203,0.0
52551.0,STARLINK-3969,PAYLOAD,2023-03-09 00:03:49,15.0886419,4.85e-05,53.2171,12.3331,176.7039,183.3956,0.0021846,0.00034674,0.0,0 STARLINK-3969,1 52551U 22051U   23068.00265879  .00034674  00000-0  21846-2 0  9991,2 52551  53.2171  12.3331 0000485 176.7039 183.3956 15.08864190 45952,6917.806,95.436,540.007,539.336,0.0
52551.0,STARLINK-3969,PAYLOAD,2023-03-09 03:14:36,15.08859328,6.09e-05,53.2171,11.7449,96.581,263.5251,0.0017152,0.00027129,0.0,0 STARLINK-3969,1 52551U 22051U   23068.13514040  .00027129  00000-0  17152-2 0  9994,2 52551  53.2171  11.7449 0000609  96.5810 263.5251 15.08859328 45977,6917.821,95.436,540.108,539.265,0.0
52551.0,STARLINK-3969,PAYLOAD,2023-03-09 19:08:27,15.08854934,6.44e-05,53.2171,8.7707,39.0513,321.0525,0.00030456,4.565e-05,0.0,0 STARLINK-3969,1 52551U 22051U   23068.79754068  .00004565  00000-0  30456-3 0  9994,2 52551  53.2171   8.7707 0000644  39.0513 321.0525 15.08854934 46008,6917.835,95.437,540.145,539.254,0.0
52551.0,STARLINK-3969,PAYLOAD,2023-03-10 01:29:59,15.08862342,9.92e-05,53.2179,7.58,70.4698,289.6401,0.0015099,0.00023838,0.0,0 STARLINK-3969,1 52551U 22051U   23069.06249978  .00023838  00000-0  15099-2 0  9993,2 52551  53.2179   7.5800 0000992  70.4698 289.6401 15.08862342 46112,6917.812,95.436,540.363,538.991,0.0
52551.0,STARLINK-3969,PAYLOAD,2023-03-10 12:37:41,15.08867012,0.0001462,53.2172,5.4992,30.3856,329.722,0.00051158,7.869e-05,0.0,0 STARLINK-3969,1 52551U 22051U   23069.52617358  .00007869  00000-0  51158-3 0  9998,2 52551  53.2172   5.4992 0001462  30.3856 329.7220 15.08867012 46189,6917.798,95.436,540.674,538.651,0.0
52551.0,STARLINK-3969,PAYLOAD,2023-03-11 04:31:34,15.08830588,0.0001224,53.2169,2.5231,58.2415,301.8697,0.00042179,6.43e-05,0.0,0 STARLINK-3969,1 52551U 22051U   23070.18858850  .00006430  00000-0  42179-3 0  9992,2 52551  53.2169   2.5231 0001224  58.2415 301.8697 15.08830588 46283,6917.909,95.438,540.621,538.927,0.0
52551.0,STARLINK-3969,PAYLOAD,2023-03-11 20:25:25,15.08843719,0.0001247,53.217,359.5502,54.7718,305.3391,0.001006,0.0001576,0.0,0 STARLINK-3969,1 52551U 22051U   23070.85099232  .00015760  00000-0  10060-2 0  9996,2 52551  53.2170 359.5502 0001247  54.7718 305.3391 15.08843719 46317,6917.869,95.437,540.597,538.871,0.0
52551.0,STARLINK-3969,PAYLOAD,2023-03-12 04:22:21,15.08857149,0.0001938,53.2169,358.0646,103.8309,256.2899,0.0012633,0.00019884,0.0,0 STARLINK-3969,1 52551U 22051U   23071.18218778  .00019884  00000-0  12633-2 0  9990,2 52551  53.2169 358.0646 0001938 103.8309 256.2899 15.08857149 46439,6917.828,95.436,541.034,538.352,0.0
52551.0,STARLINK-3969,PAYLOAD,2023-03-12 18:40:49,15.08845158,0.0001603,53.2169,355.3873,55.723,304.3913,0.00039998,6.084e-05,0.0,0 STARLINK-3969,1 52551U 22051U   23071.77834863  .00006084  00000-0  39998-3 0  9996,2 52551  53.2169 355.3873 0001603  55.7230 304.3913 15.08845158 46527,6917.865,95.437,540.839,538.621,0.0
52551.0,STARLINK-3969,PAYLOAD,2023-03-12 21:51:35,15.08848369,0.0001354,53.2166,354.7935,56.9557,303.1565,0.00068061,0.00010563,0.0,0 STARLINK-3969,1 52551U 22051U   23071.91082780  .00010563  00000-0  68061-3 0  9995,2 52551  53.2166 354.7935 0001354  56.9557 303.1565 15.08848369 46475,6917.855,95.437,540.656,538.783,0.0
52551.0,STARLINK-3969,PAYLOAD,2023-03-13 04:13:07,15.0886391,0.0001568,53.2171,353.6026,81.5061,278.6109,0.00083999,0.00013114,0.0,0 STARLINK-3969,1 52551U 22051U   23072.17578337  .00013114  00000-0  83999-3 0  9994,2 52551  53.2171 353.6026 0001568  81.5061 278.6109 15.08863910 46582,6917.807,95.436,540.757,538.588,0.0
52551.0,STARLINK-3969,PAYLOAD,2023-03-13 21:42:22,15.0883434,0.0001298,53.217,350.3317,83.8875,276.2265,0.00091701,0.00014334,0.0,0 STARLINK-3969,1 52551U 22051U   23072.90443269  .00014334  00000-0  91701-3 0  9995,2 52551  53.2170 350.3317 0001298  83.8875 276.2265 15.08834340 46690,6917.898,95.438,540.661,538.865,0.0
52551.0,STARLINK-3969,PAYLOAD,2023-03-14 00:53:09,15.08840792,0.000162,53.217,349.7361,93.6949,266.4228,0.0010604,0.00016629,0.0,0 STARLINK-3969,1 52551U 22051U   23073.03691260  .00016629  00000-0  10604-2 0  9997,2 52551  53.2170 349.7361 0001620  93.6949 266.4228 15.08840792 46644,6917.878,95.438,540.864,538.622,0.0
52551.0,STARLINK-3969,PAYLOAD,2023-03-15 03:54:41,15.08899315,0.0001625,53.217,344.681,99.0265,261.0911,0.0022936,0.00036463,0.0,0 STARLINK-3969,1 52551U 22051U   23074.16297845  .00036463  00000-0  22936-2 0  9992,2 52551  53.2170 344.6810 0001625  99.0265 261.0911 15.08899315 46884,6917.699,95.434,540.688,538.44,0.0
52551.0,STARLINK-3969,PAYLOAD,2023-03-15 21:23:56,15.0884547,0.0001547,53.2176,341.4108,116.8823,243.2327,0.00064456,9.987e-05,0.0,0 STARLINK-3969,1 52551U 22051U   23074.89162080  .00009987  00000-0  64456-3 0  9999,2 52551  53.2176 341.4108 0001547 116.8823 243.2327 15.08845470 46927,6917.864,95.437,540.799,538.658,0.0
52551.0,STARLINK-3969,PAYLOAD,2023-03-16 05:20:51,15.08872744,0.0001126,53.2172,339.9244,73.4363,286.6752,0.0021104,0.00033489,0.0,0 STARLINK-3969,1 52551U 22051U   23075.22281845  .00033489  00000-0  21104-2 0  9994,2 52551  53.2172 339.9244 0001126  73.4363 286.6752 15.08872744 47047,6917.78,95.435,540.424,538.866,0.0
